[{"OBJECT_NAME":"STARLINK-4507","OBJECT_ID":"2022-097R","EPOCH":"2026-03-09T09:05:03.393600","MEAN_MOTION":15.08832174,"ECCENTRICITY":8.815e-5,"INCLINATION":53.2164,"RA_OF_ASC_NODE":125.8641,"ARG_OF_PERICENTER":80.4307,"MEAN_ANOMALY":279.6785,"EPHEMERIS_TYPE":0,"CLASSIFICATION_TYPE":"U","NORAD_CAT_ID":53403,"ELEMENT_SET_NO":999,"REV_AT_EPOCH":19846,"BSTAR":-9.0383444e-5,"MEAN_MOTION_DOT":-1.726e-5,"MEAN_MOTION_DDOT":0},{"OBJECT_NAME":"SCOUT X-4 DEB","OBJECT_ID":"1963-053J","EPOCH":"2026-03-09T16:55:00.113088","MEAN_MOTION":14.81958963,"ECCENTRICITY":0.01635672,"INCLINATION":78.5671,"RA_OF_ASC_NODE":172.6466,"ARG_OF_PERICENTER":287.7652,"MEAN_ANOMALY":70.5757,"EPHEMERIS_TYPE":0,"CLASSIFICATION_TYPE":"U","NORAD_CAT_ID":3750,"ELEMENT_SET_NO":999,"REV_AT_EPOCH":79379,"BSTAR":0.0036900022,"MEAN_MOTION_DOT":0.00037093,"MEAN_MOTION_DDOT":0}]
